start=new Date('2022-05-10T00:00:00.000Z').valueOf();
sats=[{"MEAN_MOTION_DDOT":"0.0000000000000","BSTAR":"0.00023536000000","PERIAPSIS":"546.056","SEMIMAJOR_AXIS":"6925.344","ECCENTRICITY":"0.00016640","INCLINATION":"53.0551","TLE_LINE1":"1 46374U 20062BB  22129.66356531  .00003226  00000-0  23536-3 0  9990","RA_OF_ASC_NODE":"111.5914","MEAN_ANOMALY":"286.8539","CENTER_NAME":"EARTH","EPHEMERIS_TYPE":"0","TIME_SYSTEM":"UTC","FILE":"3438010","REV_AT_EPOCH":"9427","APOAPSIS":"548.361","NORAD_CAT_ID":"46374","COUNTRY_CODE":"US","EPOCH":"2022-05-09T15:55:32.042784","OBJECT_ID":"2020-062BB","SITE":"AFETR","OBJECT_NAME":"STARLINK-1711","LAUNCH_DATE":"2020-09-03","REF_FRAME":"TEME","TLE_LINE2":"2 46374  53.0551 111.5914 0001664  73.2632 286.8539 15.06401619 94273","RCS_SIZE":"LARGE","MEAN_MOTION_DOT":"0.00003226","PERIOD":"95.592","MEAN_ELEMENT_THEORY":"SGP4","CLASSIFICATION_TYPE":"U","GP_ID":"203139860","DECAY_DATE":null,"OBJECT_TYPE":"PAYLOAD","MEAN_MOTION":"15.06401619","ARG_OF_PERICENTER":"73.2632","ELEMENT_SET_NO":"999"},{"SITE":"AFETR","LAUNCH_DATE":"2020-09-03","OBJECT_NAME":"STARLINK-1724","REF_FRAME":"TEME","TLE_LINE2":"2 46375  53.0536 136.2062 0002333  40.6681 319.4482 15.06402256 93931","OBJECT_ID":"2020-062BC","COUNTRY_CODE":"US","EPOCH":"2022-05-09T17:51:39.376800","ARG_OF_PERICENTER":"40.6681","MEAN_MOTION":"15.06402256","ELEMENT_SET_NO":"999","OBJECT_TYPE":"PAYLOAD","DECAY_DATE":null,"MEAN_ELEMENT_THEORY":"SGP4","CLASSIFICATION_TYPE":"U","GP_ID":"203140597","RCS_SIZE":"LARGE","MEAN_MOTION_DOT":"0.00001995","PERIOD":"95.592","INCLINATION":"53.0536","ECCENTRICITY":"0.00023330","BSTAR":"0.00015283000000","PERIAPSIS":"545.591","SEMIMAJOR_AXIS":"6925.342","MEAN_MOTION_DDOT":"0.0000000000000","REV_AT_EPOCH":"9393","NORAD_CAT_ID":"46375","APOAPSIS":"548.822","FILE":"3438010","MEAN_ANOMALY":"319.4482","CENTER_NAME":"EARTH","EPHEMERIS_TYPE":"0","TIME_SYSTEM":"UTC","TLE_LINE1":"1 46375U 20062BC  22129.74420575  .00001995  00000-0  15283-3 0  9991","RA_OF_ASC_NODE":"136.2062"},{"DECAY_DATE":null,"OBJECT_TYPE":"PAYLOAD","ARG_OF_PERICENTER":"53.1239","MEAN_MOTION":"15.06412309","ELEMENT_SET_NO":"999","PERIOD":"95.591","RCS_SIZE":"LARGE","MEAN_MOTION_DOT":"0.00004896","GP_ID":"203101553","MEAN_ELEMENT_THEORY":"SGP4","CLASSIFICATION_TYPE":"U","TLE_LINE2":"2 46376  53.0544 137.3484 0002190  53.1239 306.9951 15.06412309 93897","OBJECT_NAME":"STARLINK-1742","SITE":"AFETR","LAUNCH_DATE":"2020-09-03","REF_FRAME":"TEME","COUNTRY_CODE":"US","EPOCH":"2022-05-09T11:50:43.029312","OBJECT_ID":"2020-062BD","FILE":"3437431","APOAPSIS":"548.692","NORAD_CAT_ID":"46376","REV_AT_EPOCH":"9389","RA_OF_ASC_NODE":"137.3484","TLE_LINE1":"1 46376U 20062BD  22129.49355358  .00004896  00000-0  34722-3 0  9992","EPHEMERIS_TYPE":"0","TIME_SYSTEM":"UTC","MEAN_ANOMALY":"306.9951","CENTER_NAME":"EARTH","ECCENTRICITY":"0.00021900","INCLINATION":"53.0544","MEAN_MOTION_DDOT":"0.0000000000000","SEMIMAJOR_AXIS":"6925.311","PERIAPSIS":"545.659","BSTAR":"0.00034722000000"},{"MEAN_MOTION_DDOT":"0.0000000000000","SEMIMAJOR_AXIS":"6925.376","PERIAPSIS":"545.900","BSTAR":"0.00000073694000","ECCENTRICITY":"0.00019360","INCLINATION":"53.0548","RA_OF_ASC_NODE":"161.0103","TLE_LINE1":"1 46380U 20062BH  22129.79166615 -.00000271  00000-0  73694-6 0  9994","EPHEMERIS_TYPE":"0","TIME_SYSTEM":"UTC","MEAN_ANOMALY":"315.5927","CENTER_NAME":"EARTH","FILE":"3438010","NORAD_CAT_ID":"46380","APOAPSIS":"548.582","REV_AT_EPOCH":"9359","COUNTRY_CODE":"US","EPOCH":"2022-05-09T18:59:59.955360","OBJECT_ID":"2020-062BH","TLE_LINE2":"2 46380  53.0548 161.0103 0001936  44.5218 315.5927 15.06391017 93594","LAUNCH_DATE":"2020-09-03","SITE":"AFETR","OBJECT_NAME":"STARLINK-1758","REF_FRAME":"TEME","PERIOD":"95.593","RCS_SIZE":"LARGE","MEAN_MOTION_DOT":"-0.00000271","GP_ID":"203140107","MEAN_ELEMENT_THEORY":"SGP4","CLASSIFICATION_TYPE":"U","DECAY_DATE":null,"OBJECT_TYPE":"PAYLOAD","ARG_OF_PERICENTER":"44.5218","MEAN_MOTION":"15.06391017","ELEMENT_SET_NO":"999"},{"ELEMENT_SET_NO":"999","MEAN_MOTION":"15.06399981","ARG_OF_PERICENTER":"44.3104","DECAY_DATE":null,"OBJECT_TYPE":"PAYLOAD","CLASSIFICATION_TYPE":"U","MEAN_ELEMENT_THEORY":"SGP4","GP_ID":"203140360","RCS_SIZE":"LARGE","MEAN_MOTION_DOT":"0.00000119","PERIOD":"95.592","REF_FRAME":"TEME","OBJECT_NAME":"STARLINK-1769","SITE":"AFETR","LAUNCH_DATE":"2020-09-03","TLE_LINE2":"2 46382  53.0533 136.3958 0002161  44.3104 315.8058 15.06399981 93930","OBJECT_ID":"2020-062BK","EPOCH":"2022-05-09T16:58:33.935808","COUNTRY_CODE":"US","REV_AT_EPOCH":"9393","NORAD_CAT_ID":"46382","APOAPSIS":"548.710","FILE":"3438010","CENTER_NAME":"EARTH","MEAN_ANOMALY":"315.8058","TIME_SYSTEM":"UTC","EPHEMERIS_TYPE":"0","TLE_LINE1":"1 46382U 20062BK  22129.70733722  .00000119  00000-0  26885-4 0  9994","RA_OF_ASC_NODE":"136.3958","INCLINATION":"53.0533","ECCENTRICITY":"0.00021610","BSTAR":"0.00002688500000","SEMIMAJOR_AXIS":"6925.349","PERIAPSIS":"545.717","MEAN_MOTION_DDOT":"0.0000000000000"},{"INCLINATION":"53.0547","ECCENTRICITY":"0.00016570","BSTAR":"0.00006557600000","SEMIMAJOR_AXIS":"6925.382","PERIAPSIS":"546.099","MEAN_MOTION_DDOT":"0.0000000000000","REV_AT_EPOCH":"9325","NORAD_CAT_ID":"46383","APOAPSIS":"548.394","FILE":"3437431","MEAN_ANOMALY":"301.4280","CENTER_NAME":"EARTH","EPHEMERIS_TYPE":"0","TIME_SYSTEM":"UTC","TLE_LINE1":"1 46383U 20062BL  22129.42859465  .00000695  00000-0  65576-4 0  9996","RA_OF_ASC_NODE":"182.6427","SITE":"AFETR","LAUNCH_DATE":"2020-09-03","OBJECT_NAME":"STARLINK-1770","REF_FRAME":"TEME","TLE_LINE2":"2 46383  53.0547 182.6427 0001657  58.6871 301.4280 15.06389118 93253","OBJECT_ID":"2020-062BL","COUNTRY_CODE":"US","EPOCH":"2022-05-09T10:17:10.577760","ARG_OF_PERICENTER":"58.6871","MEAN_MOTION":"15.06389118","ELEMENT_SET_NO":"999","DECAY_DATE":null,"OBJECT_TYPE":"PAYLOAD","MEAN_ELEMENT_THEORY":"SGP4","CLASSIFICATION_TYPE":"U","GP_ID":"203100802","RCS_SIZE":"LARGE","MEAN_MOTION_DOT":"0.00000695","PERIOD":"95.593"},{"MEAN_ELEMENT_THEORY":"SGP4","CLASSIFICATION_TYPE":"U","GP_ID":"203138860","MEAN_MOTION_DOT":"0.00000642","RCS_SIZE":"LARGE","PERIOD":"95.592","ARG_OF_PERICENTER":"63.4278","MEAN_MOTION":"15.06397407","ELEMENT_SET_NO":"999","OBJECT_TYPE":"PAYLOAD","DECAY_DATE":null,"OBJECT_ID":"2020-062BM","COUNTRY_CODE":"US","EPOCH":"2022-05-09T19:55:42.669408","OBJECT_NAME":"STARLINK-1771","SITE":"AFETR","LAUNCH_DATE":"2020-09-03","REF_FRAME":"TEME","TLE_LINE2":"2 46384  53.0557 180.8419 0001556  63.4278 296.6870 15.06397407 93316","MEAN_ANOMALY":"296.6870","CENTER_NAME":"EARTH","EPHEMERIS_TYPE":"0","TIME_SYSTEM":"UTC","TLE_LINE1":"1 46384U 20062BM  22129.83035497  .00000642  00000-0  61976-4 0  9995","RA_OF_ASC_NODE":"180.8419","REV_AT_EPOCH":"9331","NORAD_CAT_ID":"46384","APOAPSIS":"548.299","FILE":"3438010","BSTAR":"0.00006197600000","SEMIMAJOR_AXIS":"6925.357","PERIAPSIS":"546.144","MEAN_MOTION_DDOT":"0.0000000000000","INCLINATION":"53.0557","ECCENTRICITY":"0.00015560"},{"GP_ID":"203140874","MEAN_ELEMENT_THEORY":"SGP4","CLASSIFICATION_TYPE":"U","PERIOD":"95.592","MEAN_MOTION_DOT":"0.00001203","RCS_SIZE":"LARGE","MEAN_MOTION":"15.06400196","ARG_OF_PERICENTER":"90.3139","ELEMENT_SET_NO":"999","OBJECT_TYPE":"PAYLOAD","DECAY_DATE":null,"OBJECT_ID":"2020-070A","COUNTRY_CODE":"US","EPOCH":"2022-05-09T21:31:15.180672","TLE_LINE2":"2 46532  53.0557 340.5301 0001472  90.3139 269.8018 15.06400196 88521","LAUNCH_DATE":"2020-10-06","SITE":"AFETR","OBJECT_NAME":"STARLINK-1644","REF_FRAME":"TEME","EPHEMERIS_TYPE":"0","TIME_SYSTEM":"UTC","MEAN_ANOMALY":"269.8018","CENTER_NAME":"EARTH","RA_OF_ASC_NODE":"340.5301","TLE_LINE1":"1 46532U 20070A   22129.89670348  .00001203  00000-0  99654-4 0  9993","NORAD_CAT_ID":"46532","APOAPSIS":"548.232","REV_AT_EPOCH":"8852","FILE":"3438010","PERIAPSIS":"546.194","SEMIMAJOR_AXIS":"6925.348","BSTAR":"0.00009965400000","MEAN_MOTION_DDOT":"0.0000000000000","INCLINATION":"53.0557","ECCENTRICITY":"0.00014720"},{"GP_ID":"203141627","CLASSIFICATION_TYPE":"U","MEAN_ELEMENT_THEORY":"SGP4","PERIOD":"95.592","RCS_SIZE":"LARGE","MEAN_MOTION_DOT":"0.00003260","ELEMENT_SET_NO":"999","MEAN_MOTION":"15.06404733","ARG_OF_PERICENTER":"74.9106","DECAY_DATE":null,"OBJECT_TYPE":"PAYLOAD","OBJECT_ID":"2020-070B","EPOCH":"2022-05-09T21:47:10.094208","COUNTRY_CODE":"US","TLE_LINE2":"2 46533  53.0558 340.4725 0001505  74.9106 285.2050 15.06404733 88520","REF_FRAME":"TEME","SITE":"AFETR","OBJECT_NAME":"STARLINK-1648","LAUNCH_DATE":"2020-10-06","TIME_SYSTEM":"UTC","EPHEMERIS_TYPE":"0","CENTER_NAME":"EARTH","MEAN_ANOMALY":"285.2050","RA_OF_ASC_NODE":"340.4725","TLE_LINE1":"1 46533U 20070B   22129.90775572  .00003260  00000-0  23765-3 0  9995","APOAPSIS":"548.241","NORAD_CAT_ID":"46533","REV_AT_EPOCH":"8852","FILE":"3438010","PERIAPSIS":"546.157","SEMIMAJOR_AXIS":"6925.334","BSTAR":"0.00023765000000","MEAN_MOTION_DDOT":"0.0000000000000","INCLINATION":"53.0558","ECCENTRICITY":"0.00015050"},{"PERIOD":"95.592","RCS_SIZE":"LARGE","MEAN_MOTION_DOT":"0.00001899","GP_ID":"203140613","MEAN_ELEMENT_THEORY":"SGP4","CLASSIFICATION_TYPE":"U","DECAY_DATE":null,"OBJECT_TYPE":"PAYLOAD","ARG_OF_PERICENTER":"63.5724","MEAN_MOTION":"15.06400953","ELEMENT_SET_NO":"999","COUNTRY_CODE":"US","EPOCH":"2022-05-09T21:20:37.899456","OBJECT_ID":"2020-070C","TLE_LINE2":"2 46534  53.0547 340.5750 0001506  63.5724 296.5419 15.06400953 88523","SITE":"AFETR","LAUNCH_DATE":"2020-10-06","OBJECT_NAME":"STARLINK-1659","REF_FRAME":"TEME","RA_OF_ASC_NODE":"340.5750","TLE_LINE1":"1 46534U 20070C   22129.88932754  .00001899  00000-0  14634-3 0  9991","EPHEMERIS_TYPE":"0","TIME_SYSTEM":"UTC","MEAN_ANOMALY":"296.5419","CENTER_NAME":"EARTH","FILE":"3438010","NORAD_CAT_ID":"46534","APOAPSIS":"548.254","REV_AT_EPOCH":"8852","MEAN_MOTION_DDOT":"0.0000000000000","SEMIMAJOR_AXIS":"6925.346","PERIAPSIS":"546.168","BSTAR":"0.00014634000000","ECCENTRICITY":"0.00015060","INCLINATION":"53.0547"}];
